{
  "type": "FeatureCollection",
  "features": [
    {
      "type": "Feature",
      "properties": {
        "norad_id": 34350,
        "name": "IRIDIUM 33 DEB",
        "group": "iridium-33-debris",
        "lat": -37.30293987713813,
        "lon": -0.019231704041374073,
        "alt_km": 763.2986214899456,
        "timestamp": "2025-12-12T18:57:44.514452+00:00",
        "meta_object_name": "IRIDIUM 33 DEB",
        "meta_object_id": "1997-051ES",
        "meta_epoch": "2025-12-12T07:35:44.115648",
        "meta_mean_motion": 14.45385544,
        "meta_eccentricity": 0.00227905,
        "meta_inclination": 86.3276,
        "meta_ra_of_asc_node": 2.9909,
        "meta_arg_of_pericenter": 136.4932,
        "meta_mean_anomaly": 243.4155,
        "meta_ephemeris_type": 0,
        "meta_classification_type": "U",
        "meta_norad_cat_id": 34350,
        "meta_element_set_no": 999,
        "meta_rev_at_epoch": 88287,
        "meta_bstar": 0.00048199861,
        "meta_mean_motion_dot": 1.72e-05,
        "meta_mean_motion_ddot": 0,
        "tle_line1": "1 34350U 97051ES  25346.31648282  .00001720  00000+0  48200-3 0  9997",
        "tle_line2": "2 34350  86.3276   2.9909 0022790 136.4932 243.4155 14.45385544882876"
      },
      "geometry": {
        "type": "Point",
        "coordinates": [
          -0.019231704041374073,
          -37.30293987713813
        ]
      }
    },
    {
      "type": "Feature",
      "properties": {
        "norad_id": 34366,
        "name": "IRIDIUM 33 DEB",
        "group": "iridium-33-debris",
        "lat": -67.38862431612554,
        "lon": 40.52238064625727,
        "alt_km": 733.9294317844942,
        "timestamp": "2025-12-12T18:57:44.514463+00:00",
        "meta_object_name": "IRIDIUM 33 DEB",
        "meta_object_id": "1997-051FJ",
        "meta_epoch": "2025-12-12T04:39:17.531424",
        "meta_mean_motion": 14.54051979,
        "meta_eccentricity": 0.00224311,
        "meta_inclination": 86.3694,
        "meta_ra_of_asc_node": 49.5503,
        "meta_arg_of_pericenter": 141.384,
        "meta_mean_anomaly": 272.3047,
        "meta_ephemeris_type": 0,
        "meta_classification_type": "U",
        "meta_norad_cat_id": 34366,
        "meta_element_set_no": 999,
        "meta_rev_at_epoch": 88174,
        "meta_bstar": 0.0017102167,
        "meta_mean_motion_dot": 7.261e-05,
        "meta_mean_motion_ddot": 0,
        "tle_line1": "1 34366U 97051FJ  25346.19395291  .00007261  00000+0  17102-2 0  9991",
        "tle_line2": "2 34366  86.3694  49.5503 0022431 141.3840 272.3047 14.54051979881747"
      },
      "geometry": {
        "type": "Point",
        "coordinates": [
          40.52238064625727,
          -67.38862431612554
        ]
      }
    },
    {
      "type": "Feature",
      "properties": {
        "norad_id": 34375,
        "name": "IRIDIUM 33 DEB",
        "group": "iridium-33-debris",
        "lat": -22.097949792066995,
        "lon": 4.129657814506965,
        "alt_km": 818.2041479629461,
        "timestamp": "2025-12-12T18:57:44.514473+00:00",
        "meta_object_name": "IRIDIUM 33 DEB",
        "meta_object_id": "1997-051FT",
        "meta_epoch": "2025-12-12T00:08:57.011424",
        "meta_mean_motion": 14.17990153,
        "meta_eccentricity": 0.0103263,
        "meta_inclination": 86.4328,
        "meta_ra_of_asc_node": 182.9943,
        "meta_arg_of_pericenter": 129.0153,
        "meta_mean_anomaly": 32.8209,
        "meta_ephemeris_type": 0,
        "meta_classification_type": "U",
        "meta_norad_cat_id": 34375,
        "meta_element_set_no": 999,
        "meta_rev_at_epoch": 86701,
        "meta_bstar": 0.0006067,
        "meta_mean_motion_dot": 1.328e-05,
        "meta_mean_motion_ddot": 0,
        "tle_line1": "1 34375U 97051FT  25346.00621541  .00001328  00000+0  60670-3 0  9998",
        "tle_line2": "2 34375  86.4328 182.9943 0103263 129.0153  32.8209 14.17990153867013"
      },
      "geometry": {
        "type": "Point",
        "coordinates": [
          4.129657814506965,
          -22.097949792066995
        ]
      }
    },
    {
      "type": "Feature",
      "properties": {
        "norad_id": 34376,
        "name": "IRIDIUM 33 DEB",
        "group": "iridium-33-debris",
        "lat": -41.548364895665316,
        "lon": -170.1941889664127,
        "alt_km": 680.5919752984455,
        "timestamp": "2025-12-12T18:57:44.514483+00:00",
        "meta_object_name": "IRIDIUM 33 DEB",
        "meta_object_id": "1997-051FU",
        "meta_epoch": "2025-12-12T01:32:00.921120",
        "meta_mean_motion": 14.62553654,
        "meta_eccentricity": 0.00271181,
        "meta_inclination": 86.2991,
        "meta_ra_of_asc_node": 6.8437,
        "meta_arg_of_pericenter": 168.8775,
        "meta_mean_anomaly": 191.3042,
        "meta_ephemeris_type": 0,
        "meta_classification_type": "U",
        "meta_norad_cat_id": 34376,
        "meta_element_set_no": 999,
        "meta_rev_at_epoch": 87997,
        "meta_bstar": 0.0021834372,
        "meta_mean_motion_dot": 0.00011166,
        "meta_mean_motion_ddot": 0,
        "tle_line1": "1 34376U 97051FU  25346.06389955  .00011166  00000+0  21834-2 0  9994",
        "tle_line2": "2 34376  86.2991   6.8437 0027118 168.8775 191.3042 14.62553654879970"
      },
      "geometry": {
        "type": "Point",
        "coordinates": [
          -170.1941889664127,
          -41.548364895665316
        ]
      }
    },
    {
      "type": "Feature",
      "properties": {
        "norad_id": 34486,
        "name": "IRIDIUM 33 DEB",
        "group": "iridium-33-debris",
        "lat": 82.83496329144388,
        "lon": 42.1102626658615,
        "alt_km": 564.2217269203084,
        "timestamp": "2025-12-12T18:57:44.514493+00:00",
        "meta_object_name": "IRIDIUM 33 DEB",
        "meta_object_id": "1997-051GB",
        "meta_epoch": "2025-12-12T02:47:17.170944",
        "meta_mean_motion": 14.95759762,
        "meta_eccentricity": 0.00136003,
        "meta_inclination": 86.3941,
        "meta_ra_of_asc_node": 12.3125,
        "meta_arg_of_pericenter": 115.3931,
        "meta_mean_anomaly": 301.9535,
        "meta_ephemeris_type": 0,
        "meta_classification_type": "U",
        "meta_norad_cat_id": 34486,
        "meta_element_set_no": 999,
        "meta_rev_at_epoch": 88977,
        "meta_bstar": 0.0027908817,
        "meta_mean_motion_dot": 0.00031283,
        "meta_mean_motion_ddot": 0,
        "tle_line1": "1 34486U 97051GB  25346.11617096  .00031283  00000+0  27909-2 0  9993",
        "tle_line2": "2 34486  86.3941  12.3125 0013600 115.3931 301.9535 14.95759762889775"
      },
      "geometry": {
        "type": "Point",
        "coordinates": [
          42.1102626658615,
          82.83496329144388
        ]
      }
    },
    {
      "type": "Feature",
      "properties": {
        "norad_id": 34487,
        "name": "IRIDIUM 33 DEB",
        "group": "iridium-33-debris",
        "lat": 86.30903396532207,
        "lon": 94.78420414762796,
        "alt_km": 722.1501706563295,
        "timestamp": "2025-12-12T18:57:44.514503+00:00",
        "meta_object_name": "IRIDIUM 33 DEB",
        "meta_object_id": "1997-051GC",
        "meta_epoch": "2025-12-12T02:09:31.801824",
        "meta_mean_motion": 14.43215052,
        "meta_eccentricity": 0.00327325,
        "meta_inclination": 86.3435,
        "meta_ra_of_asc_node": 12.6569,
        "meta_arg_of_pericenter": 130.4184,
        "meta_mean_anomaly": 283.9789,
        "meta_ephemeris_type": 0,
        "meta_classification_type": "U",
        "meta_norad_cat_id": 34487,
        "meta_element_set_no": 999,
        "meta_rev_at_epoch": 88239,
        "meta_bstar": 0.00028053869,
        "meta_mean_motion_dot": 9.69e-06,
        "meta_mean_motion_ddot": 0,
        "tle_line1": "1 34487U 97051GC  25346.08995141  .00000969  00000+0  28054-3 0  9990",
        "tle_line2": "2 34487  86.3435  12.6569 0032732 130.4184 283.9789 14.43215052882397"
      },
      "geometry": {
        "type": "Point",
        "coordinates": [
          94.78420414762796,
          86.30903396532207
        ]
      }
    },
    {
      "type": "Feature",
      "properties": {
        "norad_id": 34488,
        "name": "IRIDIUM 33 DEB",
        "group": "iridium-33-debris",
        "lat": 73.30678946515097,
        "lon": -41.83319420754165,
        "alt_km": 461.65228440417286,
        "timestamp": "2025-12-12T18:57:44.514513+00:00",
        "meta_object_name": "IRIDIUM 33 DEB",
        "meta_object_id": "1997-051GD",
        "meta_epoch": "2025-12-11T08:05:29.176800",
        "meta_mean_motion": 15.28894611,
        "meta_eccentricity": 0.00136408,
        "meta_inclination": 86.3246,
        "meta_ra_of_asc_node": 306.5086,
        "meta_arg_of_pericenter": 54.3044,
        "meta_mean_anomaly": 305.9471,
        "meta_ephemeris_type": 0,
        "meta_classification_type": "U",
        "meta_norad_cat_id": 34488,
        "meta_element_set_no": 999,
        "meta_rev_at_epoch": 89218,
        "meta_bstar": 0.0084778967,
        "meta_mean_motion_dot": 0.00245926,
        "meta_mean_motion_ddot": 0,
        "tle_line1": "1 34488U 97051GD  25345.33714325  .00245926  00000+0  84779-2 0  9990",
        "tle_line2": "2 34488  86.3246 306.5086 0013640  54.3044 305.9471 15.28894611892182"
      },
      "geometry": {
        "type": "Point",
        "coordinates": [
          -41.83319420754165,
          73.30678946515097
        ]
      }
    }
  ]
}